SatCatId,ObjectName,LaunchYear,OrbitalPeriod,LaunchMass,StatusCode,Inclination,Status,UcsData,OrbitClassEstimated,LaunchSiteCountry,Owner,UseType,Purpose,LaunchVehicleClass,TLE1,TLE2,MeanMotion,Eccentricity,OrbitClass
57604,STARLINK-30218,2023,95.71,-1.0,+,43.0,Active,0,LEO,USA,USA,Unknown,Unknown,Unknown,1 57604U 23119C   23276.28403579  .00023221  00000+0  16397-2 0  9993,2 57604  42.9989 229.2189 0001259 229.9726 130.1007 15.04517968  9436,15.04517968,0.0001259,LEO
57605,STARLINK-30138,2023,95.71,-1.0,+,43.0,Active,0,LEO,USA,USA,Unknown,Unknown,Unknown,1 57605U 23119D   23276.28202816  .00017889  00000+0  12682-2 0  9991,2 57605  42.9985 229.2048 0001034 246.6865 113.3869 15.04497232  9438,15.04497232,0.0001034,LEO
57606,STARLINK-30255,2023,95.71,-1.0,+,43.0,Active,0,LEO,USA,USA,Unknown,Unknown,Unknown,1 57606U 23119E   23276.58334491 -.00005922  00000+0 -42356-3 0  9999,2 57606  42.9993 227.1372 0001140 240.2972 133.1302 15.02546017  9472,15.02546017,0.000114,LEO
57607,STARLINK-30252,2023,94.99,-1.0,+,43.0,Active,0,LEO,USA,USA,Unknown,Unknown,Unknown,1 57607U 23119F   23276.29295638  .00058474  00000+0  29792-2 0  9993,2 57607  43.0009 224.1621 0001253 240.8808 119.1914 15.15976698  9442,15.15976698,0.0001253,LEO
57608,STARLINK-30258,2023,95.71,-1.0,+,43.0,Active,0,LEO,USA,USA,Unknown,Unknown,Unknown,1 57608U 23119G   23276.13808223  .00022101  00000+0  15622-2 0  9992,2 57608  42.9992 229.8458 0001246 253.2586 106.8120 15.04501746  9410,15.04501746,0.0001246,LEO
57609,STARLINK-30174,2023,95.71,-1.0,+,43.0,Active,0,LEO,USA,USA,Unknown,Unknown,Unknown,1 57609U 23119H   23275.86615673  .00009622  00000+0  68961-3 0  9995,2 57609  42.9982 231.2453 0000210 343.8359  16.2478 15.04496749  9388,15.04496749,2.1e-05,LEO
57610,STARLINK-30248,2023,95.71,-1.0,+,43.0,Active,0,LEO,USA,USA,Unknown,Unknown,Unknown,1 57610U 23119J   23275.60401522  .00015759  00000+0  11193-2 0  9997,2 57610  42.9998 232.7164 0000933 246.1506 113.9239 15.04496124  9346,15.04496124,9.33e-05,LEO
57611,STARLINK-30052,2023,95.71,-1.0,+,43.0,Active,0,LEO,USA,USA,Unknown,Unknown,Unknown,1 57611U 23119K   23276.26081715  .00033674  00000+0  23684-2 0  9993,2 57611  42.9989 229.0457 0001572 258.3746 101.6921 15.04507197  9448,15.04507197,0.0001572,LEO
57612,STARLINK-30245,2023,95.71,-1.0,+,43.0,Active,0,LEO,USA,USA,Unknown,Unknown,Unknown,1 57612U 23119L   23276.26027652  .00001368  00000+0  11070-3 0  9996,2 57612  42.9978 229.0388 0001251 262.4042  97.6659 15.04488952  9448,15.04488952,0.0001251,LEO
57613,STARLINK-30041,2023,95.71,-1.0,+,43.0,Active,0,LEO,USA,USA,Unknown,Unknown,Unknown,1 57613U 23119M   23275.85852462  .00014803  00000+0  10524-2 0  9996,2 57613  42.9981 231.1883 0000220 288.8550  71.2269 15.04496131  9384,15.04496131,2.2e-05,LEO
57614,STARLINK-30244,2023,95.71,-1.0,+,43.0,Active,0,LEO,USA,USA,Unknown,Unknown,Unknown,1 57614U 23119N   23276.25178354  .00033218  00000+0  23366-2 0  9992,2 57614  42.9988 228.9779 0001612 260.0925  99.9736 15.04507938  9434,15.04507938,0.0001612,LEO
57615,STARLINK-30246,2023,95.89,-1.0,+,43.0,Active,0,LEO,USA,USA,Unknown,Unknown,Unknown,1 57615U 23119P   23276.16811101  .00002994  00000+0  24161-3 0  9999,2 57615  43.0000 229.1926 0001367 267.2752  92.7933 15.01727979  9417,15.01727979,0.0001367,LEO
57616,STARLINK-30075,2023,95.71,-1.0,+,43.0,Active,0,LEO,USA,USA,Unknown,Unknown,Unknown,1 57616U 23119Q   23276.17642386  .00006270  00000+0  45467-3 0  9991,2 57616  42.9998 230.1319 0001390 268.4017  91.6667 15.04496984  9417,15.04496984,0.000139,LEO
57617,STARLINK-30148,2023,95.84,-1.0,+,43.0,Active,0,LEO,USA,USA,Unknown,Unknown,Unknown,1 57617U 23119R   23276.16992238  .00018292  00000+0  13648-2 0  9997,2 57617  43.0000 230.0815 0000636 246.5319 113.5456 15.02559646  9411,15.02559646,6.36e-05,LEO
57618,STARLINK-30249,2023,95.71,-1.0,+,43.0,Active,0,LEO,USA,USA,Unknown,Unknown,Unknown,1 57618U 23119S   23276.16981623  .00016418  00000+0  11653-2 0  9996,2 57618  42.9986 230.0834 0001306 254.2600 105.8099 15.04497861  9361,15.04497861,0.0001306,LEO
57620,STARLINK-30141,2023,95.71,-1.0,+,43.0,Active,0,LEO,USA,USA,Unknown,Unknown,Unknown,1 57620U 23119U   23276.15914916  .00021146  00000+0  14958-2 0  9994,2 57620  42.9997 230.0022 0001159 239.6203 120.4526 15.04496002  9361,15.04496002,0.0001159,LEO
57621,STARLINK-30150,2023,95.71,-1.0,+,43.0,Active,0,LEO,USA,USA,Unknown,Unknown,Unknown,1 57621U 23119V   23276.29576351  .00024235  00000+0  17118-2 0  9990,2 57621  42.9983 229.3067 0001227 262.9595  97.1108 15.04486642  9439,15.04486642,0.0001227,LEO
57622,STARLINK-30056,2023,95.89,-1.0,+,43.0,Active,0,LEO,USA,USA,Unknown,Unknown,Unknown,1 57622U 23119W   23276.14364372  .00023586  00000+0  17923-2 0  9995,2 57622  42.9985 229.0190 0001117 245.1339 114.9387 15.01743462  9422,15.01743462,0.0001117,LEO
57623,STARLINK-30100,2023,95.71,-1.0,+,43.0,Active,0,LEO,USA,USA,Unknown,Unknown,Unknown,1 57623U 23119X   23275.88992022  .00016555  00000+0  11749-2 0  9993,2 57623  42.9957 231.4257 0000525  37.3260 322.7620 15.04498314  9378,15.04498314,5.25e-05,LEO
57624,LUDI TANCE-4 01A,2023,1436.11,-1.0,+,16.05,Active,0,GSO,PRC,China,Unknown,Unknown,Unknown,1 57624U 23120A   23276.30905615 -.00000199  00000+0  00000+0 0  9999,2 57624  16.0480 217.8413 0001994 332.4920  22.4027  1.00270380   634,1.0027038,0.0001994,GSO
57626,HEAD-3A,2023,98.85,-1.0,+,45.0,Active,0,LEO,PRC,China,Unknown,Unknown,Unknown,1 57626U 23121A   23276.26147234  .00001412  00000+0  34667-3 0  9990,2 57626  45.0021 116.3254 0006740 191.1494 168.9213 14.56753340  7306,14.5675334,0.000674,LEO
57627,HEAD-3B,2023,98.8,-1.0,+,45.0,Active,0,LEO,PRC,China,Unknown,Unknown,Unknown,1 57627U 23121B   23276.51492992  .00001473  00000+0  35416-3 0  9993,2 57627  45.0030 114.8540 0005429 174.7238 185.3676 14.57554334  7347,14.57554334,0.0005429,LEO
57628,HEAD-3C,2023,98.75,-1.0,+,45.0,Active,0,LEO,PRC,China,Unknown,Unknown,Unknown,1 57628U 23121C   23276.29206218  .00001480  00000+0  35129-3 0  9992,2 57628  44.9990 115.7285 0005947 166.9842 193.1168 14.58161256  7314,14.58161256,0.0005947,LEO
57629,HEAD-3D,2023,98.71,-1.0,+,45.0,Active,0,LEO,PRC,China,Unknown,Unknown,Unknown,1 57629U 23121D   23276.27442125  .00001558  00000+0  36342-3 0  9994,2 57629  45.0044 115.6392 0007255 161.9456 198.1659 14.58757040  7317,14.5875704,0.0007255,LEO
57630,HEAD-3E,2023,98.66,-1.0,+,45.0,Active,0,LEO,PRC,China,Unknown,Unknown,Unknown,1 57630U 23121E   23276.52901681  .00001623  00000+0  37131-3 0  9991,2 57630  45.0021 114.1591 0007861 145.7621 214.3743 14.59505096  7358,14.59505096,0.0007861,LEO
57632,STARLINK-30309,2023,95.71,-1.0,+,43.0,Active,0,LEO,USA,USA,Unknown,Unknown,Unknown,1 57632U 23122A   23276.33422804  .00022605  00000+0  15973-2 0  9990,2 57632  42.9990 242.2683 0001287 249.7952 110.2752 15.04504700  8520,15.045047,0.0001287,LEO
57633,STARLINK-30306,2023,95.71,-1.0,+,43.0,Active,0,LEO,USA,USA,Unknown,Unknown,Unknown,1 57633U 23122B   23276.19816384  .00005787  00000+0  42085-3 0  9992,2 57633  42.9988 242.9677 0001185 255.9464 104.1247 15.04493901  8512,15.04493901,0.0001185,LEO
57634,STARLINK-30323,2023,94.99,-1.0,+,43.0,Active,0,LEO,USA,USA,Unknown,Unknown,Unknown,1 57634U 23122C   23275.77378587  .00000848  00000+0  55316-4 0  9999,2 57634  43.0001 241.5160 0000706 267.6244  92.4522 15.15945159  8487,15.15945159,7.06e-05,LEO
57635,STARLINK-30329,2023,95.71,-1.0,+,43.0,Active,0,LEO,USA,USA,Unknown,Unknown,Unknown,1 57635U 23122D   23276.19433089  .00029130  00000+0  20518-2 0  9995,2 57635  42.9992 242.9390 0001175 246.4758 113.5961 15.04512553  8467,15.04512553,0.0001175,LEO
57636,STARLINK-30330,2023,95.71,-1.0,+,43.0,Active,0,LEO,USA,USA,Unknown,Unknown,Unknown,1 57636U 23122E   23276.18975907  .00027495  00000+0  19384-2 0  9996,2 57636  42.9991 242.9058 0001294 257.5545 102.5153 15.04502893  8510,15.04502893,0.0001294,LEO
57637,STARLINK-30311,2023,95.71,-1.0,+,43.0,Active,0,LEO,USA,USA,Unknown,Unknown,Unknown,1 57637U 23122F   23276.31582578  .00012493  00000+0  89055-3 0  9995,2 57637  42.9969 242.1294 0001183 233.7168 126.3566 15.04504812  8520,15.04504812,0.0001183,LEO
57638,STARLINK-30328,2023,95.0,-1.0,+,43.0,Active,0,LEO,USA,USA,Unknown,Unknown,Unknown,1 57638U 23122G   23276.08423536  .00024720  00000+0  12751-2 0  9992,2 57638  43.0018 237.7940 0001999 230.8155 129.2515 15.15896375  8565,15.15896375,0.0001999,LEO
57639,STARLINK-30326,2023,95.71,-1.0,+,43.0,Active,0,LEO,USA,USA,Unknown,Unknown,Unknown,1 57639U 23122H   23276.20374893  .00024456  00000+0  17264-2 0  9998,2 57639  42.9994 242.1454 0001190 265.4596  94.6111 15.04505001  8527,15.04505001,0.000119,LEO
57640,STARLINK-30324,2023,95.71,-1.0,+,43.0,Active,0,LEO,USA,USA,Unknown,Unknown,Unknown,1 57640U 23122J   23275.91667824  .00052865  00000+0  37024-2 0  9997,2 57640  42.9993 244.2422 0001279 261.0233 121.7936 15.04481340  6045,15.0448134,0.0001279,LEO
57641,STARLINK-30312,2023,95.71,-1.0,+,43.0,Active,0,LEO,USA,USA,Unknown,Unknown,Unknown,1 57641U 23122K   23276.17368234  .00019806  00000+0  14020-2 0  9999,2 57641  42.9993 242.7865 0001192 251.3390 108.7324 15.04499956  8501,15.04499956,0.0001192,LEO
57642,STARLINK-30263,2023,95.71,-1.0,+,43.0,Active,0,LEO,USA,USA,Unknown,Unknown,Unknown,1 57642U 23122L   23276.10280776  .00021555  00000+0  15238-2 0  9993,2 57642  42.9992 243.1137 0001428 260.6576  99.4106 15.04508316  8492,15.04508316,0.0001428,LEO
57643,STARLINK-30280,2023,95.71,-1.0,+,43.0,Active,0,LEO,USA,USA,Unknown,Unknown,Unknown,1 57643U 23122M   23275.62913075  .00000583  00000+0  55498-4 0  9997,2 57643  43.0008 245.5792 0001251 271.5882  88.4817 15.04498803  8442,15.04498803,0.0001251,LEO
57644,STARLINK-30247,2023,95.84,-1.0,+,43.0,Active,0,LEO,USA,USA,Unknown,Unknown,Unknown,1 57644U 23122N   23276.28259869  .00009910  00000+0  74743-3 0  9991,2 57644  42.9986 241.8848 0000858 271.7445  88.3299 15.02544886  8529,15.02544886,8.58e-05,LEO
